CCSDS_OEM_VERS = 1.0
CREATION_DATE  = 2017-05-11T12:00:58
ORIGINATOR     = GMAT USER

META_START
OBJECT_NAME          = MOPSSat_alt_35785_km_RAAN_270_105
OBJECT_ID            = SatId
CENTER_NAME          = Earth
REF_FRAME            = EME2000
TIME_SYSTEM          = UTC
START_TIME           = 2017-01-01T00:00:00.000
USEABLE_START_TIME   = 2017-01-01T00:00:00.000
USEABLE_STOP_TIME    = 2017-01-02T00:00:00.000
STOP_TIME            = 2017-01-02T00:00:00.000
INTERPOLATION        = Lagrange
INTERPOLATION_DEGREE = 7 
META_STOP


                                                                                   

2017-01-01T11:00:00.000   8.675819745203953e+03   4.964997480948326e+04  -5.854810850760255e-01  -2.463970005812970e+00   5.400955135950021e-01   4.550021979387010e-05
2017-01-01T11:00:10.000   8.651178695919412e+03   4.965536803625023e+04  -5.850258121200969e-01  -2.464239767444022e+00   5.385498385558373e-01   4.555437193811557e-05
2017-01-01T11:00:20.000   8.626534953161154e+03   4.966074580587510e+04  -5.845699976566343e-01  -2.464508744725126e+00   5.370040949091945e-01   4.560852211152405e-05
2017-01-01T11:00:30.000   8.601888524578926e+03   4.966610811771516e+04  -5.841136417018907e-01  -2.464776937723698e+00   5.354582828527887e-01   4.566267029071323e-05
2017-01-01T11:00:40.000   8.577239417752575e+03   4.967145497114524e+04  -5.836567442710856e-01  -2.465044346507744e+00   5.339124025798835e-01   4.571681645245014e-05
2017-01-01T11:00:50.000   8.552587640510892e+03   4.967678636548619e+04  -5.831993053842471e-01  -2.465310971142276e+00   5.323664542993032e-01   4.577096057293905e-05
2017-01-01T11:01:00.000   8.527933200694995e+03   4.968210230005874e+04  -5.827413250618962e-01  -2.465576811692010e+00   5.308204382205791e-01   4.582510262835293e-05
2017-01-01T11:01:10.000   8.503276106158184e+03   4.968740277418240e+04  -5.822828033250161e-01  -2.465841868221310e+00   5.292743545539457e-01   4.587924259482954e-05
2017-01-01T11:01:20.000   8.478616365003370e+03   4.969268778712667e+04  -5.818237401995334e-01  -2.466106140791745e+00   5.277282035252158e-01   4.593338044796104e-05
2017-01-01T11:01:30.000   8.453953985263417e+03   4.969795733817773e+04  -5.813641357103120e-01  -2.466369629465433e+00   5.261819853557491e-01   4.598751616348517e-05
2017-01-01T11:01:40.000   8.429288975029425e+03   4.970321142661133e+04  -5.809039898835537e-01  -2.466632334303677e+00   5.246357002704926e-01   4.604164971700697e-05
2017-01-01T11:01:50.000   8.404621341884789e+03   4.970845005181349e+04  -5.804433027362439e-01  -2.466894255373003e+00   5.230893484625030e-01   4.609578108523237e-05
2017-01-01T11:02:00.000   8.379951093472564e+03   4.971367321315940e+04  -5.799820742867292e-01  -2.467155392739103e+00   5.215429301285134e-01   4.614991024473121e-05
2017-01-01T11:02:10.000   8.355278237349019e+03   4.971888091004481e+04  -5.795203045519907e-01  -2.467415746468406e+00   5.199964454597544e-01   4.620403717225640e-05
2017-01-01T11:02:20.000   8.330602781377318e+03   4.972407314180114e+04  -5.790579935549581e-01  -2.467675316623838e+00   5.184498946666394e-01   4.625816184388458e-05
2017-01-01T11:02:30.000   8.305924733402695e+03   4.972924990776586e+04  -5.785951413184850e-01  -2.467934103268328e+00   5.169032779583952e-01   4.631228423572504e-05
2017-01-01T11:02:40.000   8.281244101324959e+03   4.973441120726658e+04  -5.781317478666901e-01  -2.468192106464033e+00   5.153565955476085e-01   4.636640432376112e-05
2017-01-01T11:02:50.000   8.256560893078959e+03   4.973955703962659e+04  -5.776678132246287e-01  -2.468449326272592e+00   5.138098476489946e-01   4.642052208389396e-05
2017-01-01T11:03:00.000   8.231875116609830e+03   4.974468740416882e+04  -5.772033374177979e-01  -2.468705762755340e+00   5.122630344778548e-01   4.647463749199506e-05
2017-01-01T11:03:10.000   8.207186779864154e+03   4.974980230021787e+04  -5.767383204719737e-01  -2.468961415973411e+00   5.107161562495167e-01   4.652875052392700e-05
2017-01-01T11:03:20.000   8.182495890701701e+03   4.975490172711898e+04  -5.762727624115660e-01  -2.469216285988669e+00   5.091692131738080e-01   4.658286115573111e-05
2017-01-01T11:03:30.000   8.157802456954239e+03   4.975998568422486e+04  -5.758066632607035e-01  -2.469470372863070e+00   5.076222054587396e-01   4.663696936350482e-05
2017-01-01T11:03:40.000   8.133106486425521e+03   4.976505417089622e+04  -5.753400230432416e-01  -2.469723676658671e+00   5.060751333105071e-01   4.669107512339912e-05
2017-01-01T11:03:50.000   8.108407986832338e+03   4.977010718651292e+04  -5.748728417816259e-01  -2.469976197438205e+00   5.045279969298018e-01   4.674517841175674e-05
2017-01-01T11:04:00.000   8.083706965892886e+03   4.977514473045652e+04  -5.744051194985785e-01  -2.470227935264191e+00   5.029807965173426e-01   4.679927920490918e-05
2017-01-01T11:04:10.000   8.059003431335714e+03   4.978016680210846e+04  -5.739368562172705e-01  -2.470478890198855e+00   5.014335322744374e-01   4.685337747916080e-05
2017-01-01T11:04:20.000   8.034297390924157e+03   4.978517340084409e+04  -5.734680519617543e-01  -2.470729062303828e+00   4.998862044045189e-01   4.690747321072427e-05
2017-01-01T11:04:30.000   8.009588852476290e+03   4.979016452602995e+04  -5.729987067573791e-01  -2.470978451640009e+00   4.983388131143868e-01   4.696156637568808e-05
2017-01-01T11:04:40.000   7.984877823792171e+03   4.979514017703779e+04  -5.725288206293939e-01  -2.471227058268267e+00   4.967913586096557e-01   4.701565695017152e-05
2017-01-01T11:04:50.000   7.960164312979705e+03   4.980010035318069e+04  -5.720583936091934e-01  -2.471474882246251e+00   4.952438411151513e-01   4.706974490962277e-05
2017-01-01T11:05:00.000   7.935448328059827e+03   4.980504505379092e+04  -5.715874257267609e-01  -2.471721923632278e+00   4.936962608501957e-01   4.712383022967182e-05
2017-01-01T11:05:10.000   7.910729877113291e+03   4.980997427819080e+04  -5.711159170134726e-01  -2.471968182483878e+00   4.921486180377982e-01   4.717791288581327e-05
2017-01-01T11:05:20.000   7.886008967712128e+03   4.981488802580626e+04  -5.706438674912595e-01  -2.472213658863466e+00   4.906009128690568e-01   4.723199285463980e-05
2017-01-01T11:05:30.000   7.861285607486739e+03   4.981978629605344e+04  -5.701712771834123e-01  -2.472458352832679e+00   4.890531455386659e-01   4.728607011261189e-05
2017-01-01T11:05:40.000   7.836559803997438e+03   4.982466908836467e+04  -5.696981461121444e-01  -2.472702264453668e+00   4.875053162368735e-01   4.734014463633505e-05
2017-01-01T11:05:50.000   7.811831565054356e+03   4.982953640212308e+04  -5.692244743046444e-01  -2.472945393785843e+00   4.859574251695180e-01   4.739421640186975e-05
2017-01-01T11:06:00.000   7.787100898480035e+03   4.983438823671170e+04  -5.687502617886033e-01  -2.473187740888313e+00   4.844094725431546e-01   4.744828538524110e-05
2017-01-01T11:06:10.000   7.762367812109303e+03   4.983922459151271e+04  -5.682755085921843e-01  -2.473429305819857e+00   4.828614585650531e-01   4.750235156244270e-05
2017-01-01T11:06:20.000   7.737632314027405e+03   4.984404546586294e+04  -5.678002147486607e-01  -2.473670088636696e+00   4.813133834580899e-01   4.755641490890631e-05
2017-01-01T11:06:30.000   7.712894412249380e+03   4.984885085911444e+04  -5.673243802901975e-01  -2.473910089395527e+00   4.797652474406923e-01   4.761047540021241e-05
2017-01-01T11:06:40.000   7.688154114846335e+03   4.985364077061055e+04  -5.668480052502937e-01  -2.474149308152316e+00   4.782170507347391e-01   4.766453301181071e-05
2017-01-01T11:06:50.000   7.663411429387157e+03   4.985841519979383e+04  -5.663710896530323e-01  -2.474387744967699e+00   4.766687935306238e-01   4.771858772025042e-05
2017-01-01T11:07:00.000   7.638666363496768e+03   4.986317414609794e+04  -5.658936335238259e-01  -2.474625399901573e+00   4.751204760221912e-01   4.777263950194983e-05
2017-01-01T11:07:10.000   7.613918924729976e+03   4.986791760897225e+04  -5.654156368869947e-01  -2.474862273014335e+00   4.735720983988403e-01   4.782668833347603e-05
2017-01-01T11:07:20.000   7.589169120891638e+03   4.987264558781841e+04  -5.649370997718842e-01  -2.475098364363703e+00   4.720236608655690e-01   4.788073419083421e-05
2017-01-01T11:07:30.000   7.564416959799054e+03   4.987735808203800e+04  -5.644580222083454e-01  -2.475333674007103e+00   4.704751636280962e-01   4.793477704999778e-05
2017-01-01T11:07:40.000   7.539662449281836e+03   4.988205509103181e+04  -5.639784042267049e-01  -2.475568202001637e+00   4.689266068928570e-01   4.798881688690494e-05
2017-01-01T11:07:50.000   7.514905597420239e+03   4.988673661415666e+04  -5.634982458624485e-01  -2.475801948401913e+00   4.673779908819022e-01   4.804285367694901e-05
2017-01-01T11:08:00.000   7.490146412224280e+03   4.989140265078428e+04  -5.630175471499410e-01  -2.476034913263002e+00   4.658293158128350e-01   4.809688739566836e-05
2017-01-01T11:08:10.000   7.465384901762495e+03   4.989605320027746e+04  -5.625363081249398e-01  -2.476267096639232e+00   4.642805819068638e-01   4.815091801846862e-05
2017-01-01T11:08:20.000   7.440621073593832e+03   4.990068826209669e+04  -5.620545288135519e-01  -2.476498498589528e+00   4.627317893532685e-01   4.820494552185405e-05
2017-01-01T11:08:30.000   7.415854935337184e+03   4.990530783569319e+04  -5.615722092432996e-01  -2.476729119172051e+00   4.611829383450243e-01   4.825896988219274e-05
2017-01-01T11:08:40.000   7.391086494524402e+03   4.990991192053654e+04  -5.610893494402686e-01  -2.476958958445595e+00   4.596340290696070e-01   4.831299107603535e-05
2017-01-01T11:08:50.000   7.366315758995522e+03   4.991450051603944e+04  -5.606059494367588e-01  -2.477188016465826e+00   4.580850617337192e-01   4.836700907925709e-05
2017-01-01T11:09:00.000   7.341542736572655e+03   4.991907362162026e+04  -5.601220092649793e-01  -2.477416293288401e+00   4.565360365428866e-01   4.842102386776558e-05
